OBJECT_NAME,OBJECT_ID,EPOCH,MEAN_MOTION,ECCENTRICITY,INCLINATION,RA_OF_ASC_NODE,ARG_OF_PERICENTER,MEAN_ANOMALY,EPHEMERIS_TYPE,CLASSIFICATION_TYPE,NORAD_CAT_ID,ELEMENT_SET_NO,REV_AT_EPOCH,BSTAR,MEAN_MOTION_DOT,MEAN_MOTION_DDOT
SL-8 R/B,1985-006B,2026-07-05T01:17:20.691744,14.37841933,.00192434,74.0454,45.1858,289.6685,222.9292,0,U,15483,999,17089,.76561255E-4,.205E-5,0
SL-12 R/B(2),1985-042D,2026-07-05T11:18:55.941120,14.22009557,.00371362,71.1060,198.8856,300.4871,221.6831,0,U,15772,999,13113,.75933284E-4,.121E-5,0
SL-14 R/B,1985-069B,2026-07-05T08:14:54.668256,14.86530770,.00193626,82.5272,274.2909,158.2565,201.9478,0,U,15945,999,19031,.63032265E-4,.584E-5,0
SL-14 R/B,1986-006B,2026-07-05T08:31:38.834976,14.86963281,.00748526,82.5275,149.0162,242.0121,117.3508,0,U,16496,999,16669,.68122254E-4,.667E-5,0
COSMOS 1743,1986-034A,2026-07-05T08:05:58.490592,15.68767441,.00049874,82.5283,309.4107,209.2238,150.8745,0,U,16719,999,19863,.63750217E-3,.73272E-3,0
SL-14 R/B,1986-046B,2026-07-05T08:06:16.264800,14.85685629,.00226376,82.4831,329.0238,195.5492,164.5032,0,U,16792,999,14387,.68069319E-4,.617E-5,0
SL-14 R/B,1986-055B,2026-07-05T01:42:48.210048,14.85735891,.00176076,82.5197,16.3163,306.6984,175.8056,0,U,16882,999,13679,.57013144E-4,.52E-5,0
AJISAI (EGS),1986-061A,2026-07-05T11:10:19.814304,12.44516675,.00111205,50.0094,91.1899,227.0644,292.3587,0,U,16908,999,48266,.44949669E-4,-.91E-6,0
SL-14 R/B,1987-024B,2026-07-05T09:29:44.473632,14.86227078,.00170621,82.5289,342.1341,227.7182,132.2589,0,U,17567,999,10561,.62785813E-4,.577E-5,0
COSMOS 1833,1987-027A,2026-07-05T03:49:48.461088,14.13062648,.00235607,70.9210,79.0935,25.1293,335.0969,0,U,17589,999,2691,.14718136E-3,.228E-5,0
SL-16 R/B,1987-027B,2026-07-05T13:37:54.401664,14.17174925,.00070831,71.0031,28.0948,292.3616,67.6757,0,U,17590,999,3204,-.53070769E-4,-.155E-5,0
SL-14 R/B,1987-038B,2026-07-05T10:49:45.649920,14.85457364,.00203996,82.5004,185.8680,132.2616,228.0334,0,U,17912,999,9671,.56133614E-4,.51E-5,0
COSMOS 1844,1987-041A,2026-07-05T06:44:02.018688,14.14574949,.00319364,70.8983,146.1417,209.2662,150.6672,0,U,17973,999,2021,.24605703E-3,.426E-5,0
SL-14 R/B,1987-055B,2026-07-05T04:55:38.950752,14.85723191,.00202135,82.4979,238.2439,349.3574,10.7211,0,U,18153,999,8738,.50776586E-4,.466E-5,0
COSMOS 1867,1987-060A,2026-07-05T10:28:57.645120,14.31517862,.00169268,65.0119,336.9485,282.0979,77.8208,0,U,18187,999,3679,.26503587E-4,-.3E-6,0
SL-14 R/B,1988-001B,2026-07-05T05:00:23.656032,14.85622780,.00172597,82.5131,84.8197,205.3056,154.7317,0,U,18749,999,5947,.57467043E-4,.523E-5,0
COSMOS 1933,1988-020A,2026-07-05T08:29:00.666816,15.18841765,.00053729,82.5135,134.4447,131.5061,228.6635,0,U,18958,999,6808,.26143069E-3,.5476E-4,0
SL-3 R/B,1988-032B,2026-07-05T09:38:40.164000,15.20981575,.00255048,97.5268,169.4260,179.1142,181.0143,0,U,19046,999,6999,.26003153E-3,.5741E-4,0
SL-16 R/B,1988-039B,2026-07-05T10:35:02.771520,14.19631768,.00211438,71.0129,179.5598,165.0301,195.1455,0,U,19120,999,97509,.90119339E-4,.143E-5,0
COSMOS 1953,1988-050A,2026-07-05T14:11:53.533248,15.30244059,.00121846,82.5063,39.4705,70.3462,289.9092,0,U,19210,999,5580,.32708054E-3,.9623E-4,0
SL-8 R/B,1988-053B,2026-07-05T08:41:05.100576,14.38975281,.00194072,74.0471,255.5559,44.2827,29.4234,0,U,19257,999,99352,.94254965E-4,.265E-5,0
SL-14 R/B,1988-093B,2026-07-05T07:41:35.000736,14.85756040,.00208995,82.5320,291.6214,13.2573,40.5171,0,U,19574,999,1848,.59764579E-4,.545E-5,0
SL-16 R/B,1988-102B,2026-07-05T07:11:19.881024,14.16169629,.00148264,70.9999,264.0289,200.4212,159.6320,0,U,19650,999,94354,-.18869197E-4,-.85E-6,0
INTERCOSMOS 24,1989-080A,2026-07-05T01:04:22.207008,12.59686645,.11877346,82.6048,28.0233,20.5008,343.9857,0,U,20261,999,68157,.21680575E-3,.755E-5,0
SL-14 R/B,1989-080C,2026-07-05T05:48:37.115136,12.50577175,.12284041,82.5943,97.7081,276.0712,70.2079,0,U,20262,999,67484,.59218544E-4,.195E-5,0
DELTA 1 R/B,1989-089B,2026-07-05T11:55:44.069376,14.50743875,.00704896,97.0634,15.1251,109.9371,250.9438,0,U,20323,999,91281,.11453268E-3,.43E-5,0
ARIANE 40 R/B,1990-005H,2026-07-05T04:20:46.696128,14.39937681,.00095918,98.2950,243.2370,204.4619,155.6116,0,U,20443,999,90971,.12703894E-3,.358E-5,0
