SL-8 R/B                
1 15483U 85006B   26186.05371170  .00000205  00000+0  76561-4 0  9992
2 15483  74.0454  45.1858 0019243 289.6685 222.9292 14.37841933170897
SL-12 R/B(2)            
1 15772U 85042D   26186.47148080  .00000121  00000+0  75933-4 0  9990
2 15772  71.1060 198.8856 0037136 300.4871 221.6831 14.22009557131134
SL-14 R/B               
1 15945U 85069B   26186.34368829  .00000584  00000+0  63032-4 0  9992
2 15945  82.5272 274.2909 0019363 158.2565 201.9478 14.86530770190315
SL-14 R/B               
1 16496U 86006B   26186.35531058  .00000667  00000+0  68122-4 0  9990
2 16496  82.5275 149.0162 0074853 242.0121 117.3508 14.86963281166690
COSMOS 1743             
1 16719U 86034A   26186.33748252  .00073272  00000+0  63750-3 0  9996
2 16719  82.5283 309.4107 0004987 209.2238 150.8745 15.68767441198638
SL-14 R/B               
1 16792U 86046B   26186.33768824  .00000617  00000+0  68069-4 0  9999
2 16792  82.4831 329.0238 0022638 195.5492 164.5032 14.85685629143874
SL-14 R/B               
1 16882U 86055B   26186.07139132  .00000520  00000+0  57013-4 0  9994
2 16882  82.5197  16.3163 0017608 306.6984 175.8056 14.85735890136795
AJISAI (EGS)            
1 16908U 86061A   26186.46550711 -.00000091  00000+0  44950-4 0  9993
2 16908  50.0094  91.1899 0011120 227.0644 292.3587 12.44516674482663
SL-14 R/B               
1 17567U 87024B   26186.39565362  .00000577  00000+0  62786-4 0  9990
2 17567  82.5289 342.1341 0017062 227.7182 132.2589 14.86227078105613
COSMOS 1833             
1 17589U 87027A   26186.15958867  .00000228  00000+0  14718-3 0  9991
2 17589  70.9210  79.0935 0023561  25.1293 335.0969 14.13062648 26911
SL-16 R/B               
1 17590U 87027B   26186.56799076 -.00000155  00000+0 -53071-4 0  9990
2 17590  71.0031  28.0948 0007083 292.3616  67.6757 14.17174925 32042
SL-14 R/B               
1 17912U 87038B   26186.45122279  .00000510  00000+0  56134-4 0  9999
2 17912  82.5004 185.8680 0020400 132.2616 228.0334 14.85457364 96716
COSMOS 1844             
1 17973U 87041A   26186.28057891  .00000426  00000+0  24606-3 0  9992
2 17973  70.8983 146.1417 0031936 209.2662 150.6672 14.14574949 20217
SL-14 R/B               
1 18153U 87055B   26186.20531192  .00000466  00000+0  50777-4 0  9994
2 18153  82.4979 238.2439 0020214 349.3574  10.7211 14.85723191 87383
COSMOS 1867             
1 18187U 87060A   26186.43677830 -.00000030  00000+0  26504-4 0  9991
2 18187  65.0119 336.9485 0016927 282.0979  77.8208 14.31517862 36794
SL-14 R/B               
1 18749U 88001B   26186.20860713  .00000523  00000+0  57467-4 0  9998
2 18749  82.5131  84.8197 0017260 205.3056 154.7317 14.85622780 59471
COSMOS 1933             
1 18958U 88020A   26186.35347993  .00005476  00000+0  26143-3 0  9995
2 18958  82.5135 134.4447 0005373 131.5061 228.6635 15.18841765 68089
SL-3 R/B                
1 19046U 88032B   26186.40185375  .00005741  00000+0  26003-3 0  9997
2 19046  97.5268 169.4260 0025505 179.1142 181.0143 15.20981575 69993
SL-16 R/B               
1 19120U 88039B   26186.44100429  .00000143  00000+0  90119-4 0  9999
2 19120  71.0129 179.5598 0021144 165.0301 195.1455 14.19631768975093
COSMOS 1953             
1 19210U 88050A   26186.59159182  .00009623  00000+0  32708-3 0  9999
2 19210  82.5063  39.4705 0012184  70.3462 289.9092 15.30244059 55805
SL-8 R/B                
1 19257U 88053B   26186.36186458  .00000265  00000+0  94255-4 0  9993
2 19257  74.0471 255.5559 0019407  44.2827  29.4234 14.38975281993523
SL-14 R/B               
1 19574U 88093B   26186.32054399  .00000545  00000+0  59765-4 0  9991
2 19574  82.5320 291.6214 0020899  13.2573  40.5171 14.85756040 18481
SL-16 R/B               
1 19650U 88102B   26186.29953566 -.00000085  00000+0 -18869-4 0  9998
2 19650  70.9999 264.0289 0014826 200.4212 159.6320 14.16169629943545
INTERCOSMOS 24          
1 20261U 89080A   26186.04470147  .00000755  00000+0  21681-3 0  9993
2 20261  82.6048  28.0233 1187735  20.5008 343.9857 12.59686645681574
SL-14 R/B               
1 20262U 89080C   26186.24209624  .00000195  00000+0  59219-4 0  9993
2 20262  82.5943  97.7081 1228404 276.0712  70.2079 12.50577175674847
DELTA 1 R/B             
1 20323U 89089B   26186.49703784  .00000430  00000+0  11453-3 0  9992
2 20323  97.0634  15.1251 0070490 109.9371 250.9438 14.50743875912812
ARIANE 40 R/B           
1 20443U 90005H   26186.18109602  .00000358  00000+0  12704-3 0  9999
2 20443  98.2950 243.2370 0009592 204.4619 155.6116 14.39937681909712
